48976,ONEWEB-0258,2021,109.37,148.0,+,87.92,Active,1,LEO,Russia,UK,Commercial,Communications,Soyuz,1 48976U 21060K   24280.48909751  .00000156  00000+0  37432-3 0  9995,2 48976  87.9162 352.0287 0001859  97.8944 262.2398 13.16596916158182,13.16596916,0.0001859,LEO
48977,ONEWEB-0259,2021,109.37,148.0,+,87.92,Active,1,LEO,Russia,UK,Commercial,Communications,Soyuz,1 48977U 21060L   24280.48277449  .00000177  00000+0  42995-3 0  9991,2 48977  87.9162 352.0146 0002042  96.7829 263.3535 13.16596165158217,13.16596165,0.0002042,LEO
48978,ONEWEB-0260,2021,109.37,148.0,+,87.92,Active,1,LEO,Russia,UK,Commercial,Communications,Soyuz,1 48978U 21060M   24280.47405187  .00000071  00000+0  15165-3 0  9995,2 48978  87.9164 352.0453 0001710 118.7099 241.4203 13.16594295158194,13.16594295,0.000171,LEO
48979,ONEWEB-0261,2021,109.37,148.0,+,87.92,Active,1,LEO,Russia,UK,Commercial,Communications,Soyuz,1 48979U 21060N   24280.44318223  .00000158  00000+0  37984-3 0  9996,2 48979  87.9165 352.0481 0002316 109.3675 250.7707 13.16597086158245,13.16597086,0.0002316,LEO
48980,ONEWEB-0262,2021,109.37,148.0,+,87.92,Active,1,LEO,Russia,UK,Commercial,Communications,Soyuz,1 48980U 21060P   24280.50019250  .00000102  00000+0  23193-3 0  9999,2 48980  87.9162 351.9979 0002257  96.9145 263.2243 13.16595431158214,13.16595431,0.0002257,LEO
48981,ONEWEB-0263,2021,109.37,148.0,+,87.92,Active,1,LEO,Russia,UK,Commercial,Communications,Soyuz,1 48981U 21060Q   24280.45585672  .00000162  00000+0  39137-3 0  9991,2 48981  87.9164 352.0262 0002337 103.3136 256.8256 13.16596558158174,13.16596558,0.0002337,LEO
48982,ONEWEB-0264,2021,109.37,148.0,+,87.92,Active,1,LEO,Russia,UK,Commercial,Communications,Soyuz,1 48982U 21060R   24280.49304049  .00000158  00000+0  38055-3 0  9996,2 48982  87.9164 352.0294 0001871 100.7995 259.3346 13.16597153158187,13.16597153,0.0001871,LEO
48984,ONEWEB-0266,2021,109.37,148.0,+,87.92,Active,1,LEO,Russia,UK,Commercial,Communications,Soyuz,1 48984U 21060T   24280.43843096  .00000243  00000+0  60194-3 0  9996,2 48984  87.9161 352.0152 0001802  94.8572 265.2765 13.16599424158169,13.16599424,0.0001802,LEO
